IRIDIUM 57              
1 25273U 98019B   24188.52790921  .00000474  00000+0  15886-3 0  9999
2 25273  86.3961 290.0197 0002209  95.1869 264.9580 14.35271730375195
IRIDIUM 63              
1 25286U 98021B   24188.54414667  .00000464  00000+0  15372-3 0  9997
2 25286  86.3984 226.9132 0002163  89.3855 270.7590 14.35822182374233
IRIDIUM 71              
1 25320U 98026B   24188.55155154  .00000509  00000+0  15422-3 0  9991
2 25320  86.3972 235.9947 0003975 119.0169 241.1429 14.40376269373827
IRIDIUM 82              
1 25467U 98051A   24188.48551189  .00018436  00000+0  90602-3 0  9992
2 25467  86.3753 276.6119 0126872 149.0378 211.8422 15.11012114371400
