<?xml version="1.0" encoding="UTF-8"?>
<ndm xmlns:xsi="http://www.w3.org/2001/XMLSchema-instance" xsi:noNamespaceSchemaLocation="https://sanaregistry.org/r/ndmxml_unqualified/ndmxml-2.0.0-master-2.0.xsd">
<omm id="CCSDS_OMM_VERS" version="2.0">
<header><CREATION_DATE/><ORIGINATOR/></header><body><segment><metadata><OBJECT_NAME>IRIDIUM 57</OBJECT_NAME><OBJECT_ID>1998-019B</OBJECT_ID><CENTER_NAME>EARTH</CENTER_NAME><REF_FRAME>TEME</REF_FRAME><TIME_SYSTEM>UTC</TIME_SYSTEM><MEAN_ELEMENT_THEORY>SGP4</MEAN_ELEMENT_THEORY></metadata><data><meanElements><EPOCH>2024-07-06T12:40:11.355744</EPOCH><MEAN_MOTION>14.35271730</MEAN_MOTION><ECCENTRICITY>.0002209</ECCENTRICITY><INCLINATION>86.3961</INCLINATION><RA_OF_ASC_NODE>290.0197</RA_OF_ASC_NODE><ARG_OF_PERICENTER>95.1869</ARG_OF_PERICENTER><MEAN_ANOMALY>264.9580</MEAN_ANOMALY></meanElements><tleParameters><EPHEMERIS_TYPE>0</EPHEMERIS_TYPE><CLASSIFICATION_TYPE>U</CLASSIFICATION_TYPE><NORAD_CAT_ID>25273</NORAD_CAT_ID><ELEMENT_SET_NO>999</ELEMENT_SET_NO><REV_AT_EPOCH>37519</REV_AT_EPOCH><BSTAR>.15886E-3</BSTAR><MEAN_MOTION_DOT>.474E-5</MEAN_MOTION_DOT><MEAN_MOTION_DDOT>0</MEAN_MOTION_DDOT></tleParameters></data></segment></body></omm>
<omm id="CCSDS_OMM_VERS" version="2.0">
<header><CREATION_DATE/><ORIGINATOR/></header><body><segment><metadata><OBJECT_NAME>IRIDIUM 63</OBJECT_NAME><OBJECT_ID>1998-021B</OBJECT_ID><CENTER_NAME>EARTH</CENTER_NAME><REF_FRAME>TEME</REF_FRAME><TIME_SYSTEM>UTC</TIME_SYSTEM><MEAN_ELEMENT_THEORY>SGP4</MEAN_ELEMENT_THEORY></metadata><data><meanElements><EPOCH>2024-07-06T13:03:34.272288</EPOCH><MEAN_MOTION>14.35822182</MEAN_MOTION><ECCENTRICITY>.0002163</ECCENTRICITY><INCLINATION>86.3984</INCLINATION><RA_OF_ASC_NODE>226.9132</RA_OF_ASC_NODE><ARG_OF_PERICENTER>89.3855</ARG_OF_PERICENTER><MEAN_ANOMALY>270.7590</MEAN_ANOMALY></meanElements><tleParameters><EPHEMERIS_TYPE>0</EPHEMERIS_TYPE><CLASSIFICATION_TYPE>U</CLASSIFICATION_TYPE><NORAD_CAT_ID>25286</NORAD_CAT_ID><ELEMENT_SET_NO>999</ELEMENT_SET_NO><REV_AT_EPOCH>37423</REV_AT_EPOCH><BSTAR>.15372E-3</BSTAR><MEAN_MOTION_DOT>.464E-5</MEAN_MOTION_DOT><MEAN_MOTION_DDOT>0</MEAN_MOTION_DDOT></tleParameters></data></segment></body></omm>
<omm id="CCSDS_OMM_VERS" version="2.0">
<header><CREATION_DATE/><ORIGINATOR/></header><body><segment><metadata><OBJECT_NAME>IRIDIUM 71</OBJECT_NAME><OBJECT_ID>1998-026B</OBJECT_ID><CENTER_NAME>EARTH</CENTER_NAME><REF_FRAME>TEME</REF_FRAME><TIME_SYSTEM>UTC</TIME_SYSTEM><MEAN_ELEMENT_THEORY>SGP4</MEAN_ELEMENT_THEORY></metadata><data><meanElements><EPOCH>2024-07-06T13:14:14.053056</EPOCH><MEAN_MOTION>14.40376269</MEAN_MOTION><ECCENTRICITY>.0003975</ECCENTRICITY><INCLINATION>86.3972</INCLINATION><RA_OF_ASC_NODE>235.9947</RA_OF_ASC_NODE><ARG_OF_PERICENTER>119.0169</ARG_OF_PERICENTER><MEAN_ANOMALY>241.1429</MEAN_ANOMALY></meanElements><tleParameters><EPHEMERIS_TYPE>0</EPHEMERIS_TYPE><CLASSIFICATION_TYPE>U</CLASSIFICATION_TYPE><NORAD_CAT_ID>25320</NORAD_CAT_ID><ELEMENT_SET_NO>999</ELEMENT_SET_NO><REV_AT_EPOCH>37382</REV_AT_EPOCH><BSTAR>.15422E-3</BSTAR><MEAN_MOTION_DOT>.509E-5</MEAN_MOTION_DOT><MEAN_MOTION_DDOT>0</MEAN_MOTION_DDOT></tleParameters></data></segment></body></omm>
<omm id="CCSDS_OMM_VERS" version="2.0">
<header><CREATION_DATE/><ORIGINATOR/></header><body><segment><metadata><OBJECT_NAME>IRIDIUM 82</OBJECT_NAME><OBJECT_ID>1998-051A</OBJECT_ID><CENTER_NAME>EARTH</CENTER_NAME><REF_FRAME>TEME</REF_FRAME><TIME_SYSTEM>UTC</TIME_SYSTEM><MEAN_ELEMENT_THEORY>SGP4</MEAN_ELEMENT_THEORY></metadata><data><meanElements><EPOCH>2024-07-06T11:39:08.227296</EPOCH><MEAN_MOTION>15.11012114</MEAN_MOTION><ECCENTRICITY>.0126872</ECCENTRICITY><INCLINATION>86.3753</INCLINATION><RA_OF_ASC_NODE>276.6119</RA_OF_ASC_NODE><ARG_OF_PERICENTER>149.0378</ARG_OF_PERICENTER><MEAN_ANOMALY>211.8422</MEAN_ANOMALY></meanElements><tleParameters><EPHEMERIS_TYPE>0</EPHEMERIS_TYPE><CLASSIFICATION_TYPE>U</CLASSIFICATION_TYPE><NORAD_CAT_ID>25467</NORAD_CAT_ID><ELEMENT_SET_NO>999</ELEMENT_SET_NO><REV_AT_EPOCH>37140</REV_AT_EPOCH><BSTAR>.90602E-3</BSTAR><MEAN_MOTION_DOT>.18436E-3</MEAN_MOTION_DOT><MEAN_MOTION_DDOT>0</MEAN_MOTION_DDOT></tleParameters></data></segment></body></omm>
</ndm>
